{"type": "FeatureCollection", "features": [ {"type": "Feature", "properties": {"norad_id": 38832, "name": "FENGYUN 1C DEB", "group": "fengyun-1c-debris", "lat": 57.19822714559821, "lon": 17.413354109996476, "alt_km": 814.4800243453838, "timestamp": "2025-12-13T16:48:33.000229+00:00", "meta": {"OBJECT_NAME": "FENGYUN 1C DEB", "OBJECT_ID": "1999-025EVY", "EPOCH": "2025-12-06T01:35:41.081280", "MEAN_MOTION": 14.04461067, "ECCENTRICITY": 0.00842955, "INCLINATION": 99.2666, "RA_OF_ASC_NODE": 24.2995, "ARG_OF_PERICENTER": 61.4582, "MEAN_ANOMALY": 299.5038, "EPHEMERIS_TYPE": 0, "CLASSIFICATION_TYPE": "U", "NORAD_CAT_ID": 38832, "ELEMENT_SET_NO": 999, "REV_AT_EPOCH": 63664, "BSTAR": 0.0018423355, "MEAN_MOTION_DOT": 2.987e-05, "MEAN_MOTION_DDOT": 0}, "tle": {"line1": "1 38832U 99025EVY 25340.06644770  .00002987  00000+0  18423-2 0  9992", "line2": "2 38832  99.2666  24.2995 0084295  61.4582 299.5038 14.04461067636643"}}, "geometry": {"type": "Point", "coordinates": [17.413354109996476, 57.19822714559821]}}, {"type": "Feature", "properties": {"norad_id": 39537, "name": "FENGYUN 1C DEB", "group": "fengyun-1c-debris", "lat": -11.980299202802215, "lon": -48.537554027261784, "alt_km": 1061.2561124661797, "timestamp": "2025-12-13T16:48:33.000239+00:00", "meta": {"OBJECT_NAME": "FENGYUN 1C DEB", "OBJECT_ID": "1999-025EWE", "EPOCH": "2025-12-08T16:10:28.003008", "MEAN_MOTION": 13.84154142, "ECCENTRICITY": 0.01774078, "INCLINATION": 99.1538, "RA_OF_ASC_NODE": 128.5243, "ARG_OF_PERICENTER": 352.1329, "MEAN_ANOMALY": 7.7052, "EPHEMERIS_TYPE": 0, "CLASSIFICATION_TYPE": "U", "NORAD_CAT_ID": 39537, "ELEMENT_SET_NO": 999, "REV_AT_EPOCH": 59200, "BSTAR": 0.0019509183, "MEAN_MOTION_DOT": 2.413e-05, "MEAN_MOTION_DDOT": 0}, "tle": {"line1": "1 39537U 99025EWE 25342.67393522  .00002413  00000+0  19509-2 0  9990", "line2": "2 39537  99.1538 128.5243 0177407 352.1329   7.7052 13.84154142592000"}}, "geometry": {"type": "Point", "coordinates": [-48.537554027261784, -11.980299202802215]}}, {"type": "Feature", "properties": {"norad_id": 39541, "name": "FENGYUN 1C DEB", "group": "fengyun-1c-debris", "lat": 38.85495848272575, "lon": 22.72186099490704, "alt_km": 776.1740818538037, "timestamp": "2025-12-13T16:48:33.000249+00:00", "meta": {"OBJECT_NAME": "FENGYUN 1C DEB", "OBJECT_ID": "1999-025EWJ", "EPOCH": "2025-11-26T08:43:14.269440", "MEAN_MOTION": 14.20329557, "ECCENTRICITY": 0.00721468, "INCLINATION": 98.6819, "RA_OF_ASC_NODE": 12.7746, "ARG_OF_PERICENTER": 119.8468, "MEAN_ANOMALY": 240.9905, "EPHEMERIS_TYPE": 0, "CLASSIFICATION_TYPE": "U", "NORAD_CAT_ID": 39541, "ELEMENT_SET_NO": 999, "REV_AT_EPOCH": 58770, "BSTAR": 0.00069059031, "MEAN_MOTION_DOT": 1.475e-05, "MEAN_MOTION_DDOT": 0}, "tle": {"line1": "1 39541U 99025EWJ 25330.36335960  .00001475  00000+0  69059-3 0  9993", "line2": "2 39541  98.6819  12.7746 0072146 119.8468 240.9905 14.20329557587703"}}, "geometry": {"type": "Point", "coordinates": [22.72186099490704, 38.85495848272575]}}, {"type": "Feature", "properties": {"norad_id": 39543, "name": "FENGYUN 1C DEB", "group": "fengyun-1c-debris", "lat": 34.137136301701375, "lon": 11.296175590750519, "alt_km": 1053.0493710216033, "timestamp": "2025-12-13T16:48:33.000259+00:00", "meta": {"OBJECT_NAME": "FENGYUN 1C DEB", "OBJECT_ID": "1999-025EWL", "EPOCH": "2025-12-11T08:33:09.593856", "MEAN_MOTION": 13.70185484, "ECCENTRICITY": 0.03392448, "INCLINATION": 99.0424, "RA_OF_ASC_NODE": 15.2863, "ARG_OF_PERICENTER": 145.8033, "MEAN_ANOMALY": 216.5478, "EPHEMERIS_TYPE": 0, "CLASSIFICATION_TYPE": "U", "NORAD_CAT_ID": 39543, "ELEMENT_SET_NO": 999, "REV_AT_EPOCH": 49166, "BSTAR": 0.0012878927, "MEAN_MOTION_DOT": 1.665e-05, "MEAN_MOTION_DDOT": 0}, "tle": {"line1": "1 39543U 99025EWL 25345.35636104  .00001665  00000+0  12879-2 0  9992", "line2": "2 39543  99.0424  15.2863 0339244 145.8033 216.5478 13.70185484491668"}}, "geometry": {"type": "Point", "coordinates": [11.296175590750519, 34.137136301701375]}}, {"type": "Feature", "properties": {"norad_id": 39544, "name": "FENGYUN 1C DEB", "group": "fengyun-1c-debris", "lat": -31.32361880122611, "lon": 41.43248782511681, "alt_km": 916.5884933639009, "timestamp": "2025-12-13T16:48:33.000270+00:00", "meta": {"OBJECT_NAME": "FENGYUN 1C DEB", "OBJECT_ID": "1999-025EWM", "EPOCH": "2025-12-08T09:22:33.750624", "MEAN_MOTION": 14.05512501, "ECCENTRICITY": 0.00547745, "INCLINATION": 98.7418, "RA_OF_ASC_NODE": 221.6849, "ARG_OF_PERICENTER": 21.3384, "MEAN_ANOMALY": 339.0051, "EPHEMERIS_TYPE": 0, "CLASSIFICATION_TYPE": "U", "NORAD_CAT_ID": 39544, "ELEMENT_SET_NO": 999, "REV_AT_EPOCH": 56794, "BSTAR": 0.00088149338, "MEAN_MOTION_DOT": 1.41e-05, "MEAN_MOTION_DDOT": 0}, "tle": {"line1": "1 39544U 99025EWM 25342.39066841  .00001410  00000+0  88149-3 0  9991", "line2": "2 39544  98.7418 221.6849 0054774  21.3384 339.0051 14.05512501567940"}}, "geometry": {"type": "Point", "coordinates": [41.43248782511681, -31.32361880122611]}}, {"type": "Feature", "properties": {"norad_id": 40688, "name": "FENGYUN 1C DEB", "group": "fengyun-1c-debris", "lat": 80.38417653028759, "lon": 25.98304458648638, "alt_km": 896.8196234388597, "timestamp": "2025-12-13T16:48:33.000280+00:00", "meta": {"OBJECT_NAME": "FENGYUN 1C DEB", "OBJECT_ID": "1999-025EWU", "EPOCH": "2025-12-10T15:29:24.650016", "MEAN_MOTION": 13.83826227, "ECCENTRICITY": 0.01423, "INCLINATION": 98.9688, "RA_OF_ASC_NODE": 134.2977, "ARG_OF_PERICENTER": 37.1655, "MEAN_ANOMALY": 323.925, "EPHEMERIS_TYPE": 0, "CLASSIFICATION_TYPE": "U", "NORAD_CAT_ID": 40688, "ELEMENT_SET_NO": 999, "REV_AT_EPOCH": 29888, "BSTAR": 0.00050433, "MEAN_MOTION_DOT": 5.63e-06, "MEAN_MOTION_DDOT": 0}, "tle": {"line1": "1 40688U 99025EWU 25344.64542419  .00000563  00000+0  50433-3 0  9995", "line2": "2 40688  98.9688 134.2977 0142300  37.1655 323.9250 13.83826227298887"}}, "geometry": {"type": "Point", "coordinates": [25.98304458648638, 80.38417653028759]}}, {"type": "Feature", "properties": {"norad_id": 40689, "name": "FENGYUN 1C DEB", "group": "fengyun-1c-debris", "lat": 60.82189240012844, "lon": 102.33551986567657, "alt_km": 794.9497605380393, "timestamp": "2025-12-13T16:48:33.000290+00:00", "meta": {"OBJECT_NAME": "FENGYUN 1C DEB", "OBJECT_ID": "1999-025EWV", "EPOCH": "2025-12-08T00:46:07.511232", "MEAN_MOTION": 13.64679395, "ECCENTRICITY": 0.03101306, "INCLINATION": 99.1251, "RA_OF_ASC_NODE": 260.272, "ARG_OF_PERICENTER": 113.5696, "MEAN_ANOMALY": 249.8343, "EPHEMERIS_TYPE": 0, "CLASSIFICATION_TYPE": "U", "NORAD_CAT_ID": 40689, "ELEMENT_SET_NO": 999, "REV_AT_EPOCH": 54819, "BSTAR": 0.0018824764, "MEAN_MOTION_DOT": 2.064e-05, "MEAN_MOTION_DDOT": 0}, "tle": {"line1": "1 40689U 99025EWV 25342.03203138  .00002064  00000+0  18825-2 0  9995", "line2": "2 40689  99.1251 260.2720 0310130 113.5696 249.8343 13.64679395548197"}}, "geometry": {"type": "Point", "coordinates": [102.33551986567657, 60.82189240012844]}}, {"type": "Feature", "properties": {"norad_id": 40691, "name": "FENGYUN 1C DEB", "group": "fengyun-1c-debris", "lat": -45.254286242646984, "lon": 29.198282524160152, "alt_km": 842.034373913265, "timestamp": "2025-12-13T16:48:33.000300+00:00", "meta": {"OBJECT_NAME": "FENGYUN 1C DEB", "OBJECT_ID": "1999-025EWX", "EPOCH": "2025-12-03T08:15:02.306016", "MEAN_MOTION": 13.89944729, "ECCENTRICITY": 0.0128434, "INCLINATION": 99.0573, "RA_OF_ASC_NODE": 9.8547, "ARG_OF_PERICENTER": 336.6089, "MEAN_ANOMALY": 22.9259, "EPHEMERIS_TYPE": 0, "CLASSIFICATION_TYPE": "U", "NORAD_CAT_ID": 40691, "ELEMENT_SET_NO": 999, "REV_AT_EPOCH": 55305, "BSTAR": 0.00023937, "MEAN_MOTION_DOT": 2.71e-06, "MEAN_MOTION_DDOT": 0}, "tle": {"line1": "1 40691U 99025EWX 25337.34377669  .00000271  00000+0  23937-3 0  9996", "line2": "2 40691  99.0573   9.8547 0128434 336.6089  22.9259 13.89944729553058"}}, "geometry": {"type": "Point", "coordinates": [29.198282524160152, -45.254286242646984]}}, {"type": "Feature", "properties": {"norad_id": 40695, "name": "FENGYUN 1C DEB", "group": "fengyun-1c-debris", "lat": -46.71040953001292, "lon": -84.12869491996047, "alt_km": 767.7127946405199, "timestamp": "2025-12-13T16:48:33.000310+00:00", "meta": {"OBJECT_NAME": "FENGYUN 1C DEB", "OBJECT_ID": "1999-025EXB", "EPOCH": "2025-12-08T01:41:20.731776", "MEAN_MOTION": 14.5094297, "ECCENTRICITY": 0.02812644, "INCLINATION": 99.4262, "RA_OF_ASC_NODE": 99.7179, "ARG_OF_PERICENTER": 346.8428, "MEAN_ANOMALY": 12.553, "EPHEMERIS_TYPE": 0, "CLASSIFICATION_TYPE": "U", "NORAD_CAT_ID": 40695, "ELEMENT_SET_NO": 999, "REV_AT_EPOCH": 31798, "BSTAR": 0.00027064659, "MEAN_MOTION_DOT": 1.711e-05, "MEAN_MOTION_DDOT": 0}, "tle": {"line1": "1 40695U 99025EXB 25342.07037884  .00001711  00000+0  27065-3 0  9994", "line2": "2 40695  99.4262  99.7179 0281264 346.8428  12.5530 14.50942970317983"}}, "geometry": {"type": "Point", "coordinates": [-84.12869491996047, -46.71040953001292]}}, {"type": "Feature", "properties": {"norad_id": 40696, "name": "FENGYUN 1C DEB", "group": "fengyun-1c-debris", "lat": -72.9833693697349, "lon": 5.4398504198157065, "alt_km": 892.0813279221102, "timestamp": "2025-12-13T16:48:33.000320+00:00", "meta": {"OBJECT_NAME": "FENGYUN 1C DEB", "OBJECT_ID": "1999-025EXC", "EPOCH": "2025-11-26T05:40:29.681760", "MEAN_MOTION": 13.96727195, "ECCENTRICITY": 0.00806572, "INCLINATION": 98.9548, "RA_OF_ASC_NODE": 317.4298, "ARG_OF_PERICENTER": 42.7994, "MEAN_ANOMALY": 317.9411, "EPHEMERIS_TYPE": 0, "CLASSIFICATION_TYPE": "U", "NORAD_CAT_ID": 40696, "ELEMENT_SET_NO": 999, "REV_AT_EPOCH": 55449, "BSTAR": 0.0001965233, "MEAN_MOTION_DOT": 2.38e-06, "MEAN_MOTION_DDOT": 0}, "tle": {"line1": "1 40696U 99025EXC 25330.23645465  .00000238  00000+0  19652-3 0  9996", "line2": "2 40696  98.9548 317.4298 0080657  42.7994 317.9411 13.96727195554498"}}, "geometry": {"type": "Point", "coordinates": [5.4398504198157065, -72.9833693697349]}}]}